ONEWEB-0709             
1 55172U 23004AJ  25181.47622191 -.00000426  00000+0 -12383-2 0  9990
2 55172  87.8838  91.2012 0002803  70.3822 289.7608 13.11417758119777
ONEWEB-0710             
1 55173U 23004AK  25181.46742179  .00000054  00000+0  10664-3 0  9995
2 55173  87.9056  75.9037 0001775  73.4722 286.6604 13.17647644121261
ONEWEB-0711             
1 55174U 23004AL  25181.44740179  .00000229  00000+0  60973-3 0  9994
2 55174  87.8835  91.1747 0001413  55.7221 304.4040 13.11415715119738
ONEWEB-0713             
1 55175U 23004AM  25181.46604691 -.00000545  00000+0 -15750-2 0  9990
2 55175  87.8835  91.1786 0001715  70.3091 289.8221 13.11416110119721
ONEWEB-0715             
1 55176U 23004AN  25181.46096368 -.00000378  00000+0 -11031-2 0  9999
2 55176  87.8836  91.1803 0002186  70.0364 290.1000 13.11416091119768
ONEWEB-0716             
1 55177U 23004AP  25181.76442804  .00000042  00000+0  74790-4 0  9992
2 55177  87.9059  75.8445 0001956  85.0319 275.1036 13.17649178121303
ONEWEB-0717             
1 55178U 23004AQ  25181.44380062 -.00000292  00000+0 -78406-3 0  9991
2 55178  87.9057  75.8666 0001616  54.9501 305.1782 13.17648571121317
ONEWEB-0719             
1 55179U 23004AR  25181.75767066 -.00000241  00000+0 -65413-3 0  9997
2 55179  87.9056  75.7884 0001772  84.4653 275.6680 13.17649926121309
ONEWEB-0530             
1 55796U 23029A   25181.73045205  .00000030  00000+0  41050-4 0  9997
2 55796  87.9270 344.4864 0001325  93.0648 267.0637 13.20770828115467
ONEWEB-0534             
1 55797U 23029B   25181.49054898  .00000023  00000+0  24535-4 0  9990
2 55797  87.9272 344.5415 0001857  98.0902 262.0442 13.20772780114727
ONEWEB-0556             
1 55798U 23029C   25181.87566610  .00000035  00000+0  54894-4 0  9997
2 55798  87.9271 344.4571 0001565 120.5300 239.5988 13.20771374115462
ONEWEB-0562             
1 55799U 23029D   25181.48423260 -.00000160  00000+0 -42603-3 0  9993
2 55799  87.9269 344.5278 0000933 109.3530 250.7704 13.20771013114722
ONEWEB-0563             
1 55800U 23029E   25181.47792901  .00000065  00000+0  12682-3 0  9992
2 55800  87.9270 344.5436 0002057 100.8124 259.3241 13.20772679114716
ONEWEB-0564             
1 55801U 23029F   25181.85039392 -.00000138  00000+0 -37053-3 0  9995
2 55801  87.9267 344.4589 0001449  94.8935 265.2364 13.20770354115482
ONEWEB-0638             
1 55802U 23029G   25181.50055562  .00000108  00000+0  25658-3 0  9998
2 55802  87.9040 359.7366 0001514 106.8000 253.3296 13.14502620113194
ONEWEB-0639             
1 55803U 23029H   25181.77270028  .00000019  00000+0  16081-4 0  9996
2 55803  87.9216  14.8434 0002923  99.7993 260.3469 13.19725239113245
ONEWEB-0640             
1 55804U 23029J   25181.51006197 -.00000072  00000+0 -22907-3 0  9997
2 55804  87.9038 359.7223 0001916 114.6207 245.5122 13.14502207113212
ONEWEB-0641             
1 55805U 23029K   25181.76797491  .00000031  00000+0  45465-4 0  9997
2 55805  87.9213  14.8158 0002071  91.0883 269.0487 13.19725611113255
ONEWEB-0642             
1 55806U 23029L   25181.61159111  .00000026  00000+0  32446-4 0  9992
2 55806  87.9214  14.8845 0002758  92.3723 267.7725 13.19724139112533
ONEWEB-0643             
1 55807U 23029M   25181.86053070  .00000120  00000+0  28937-3 0  9991
2 55807  87.9037 359.6349 0002560  86.3788 273.7635 13.14501858113940
ONEWEB-0644             
1 55808U 23029N   25181.83430733  .00000020  00000+0  17957-4 0  9994
2 55808  87.9219  14.8443 0002371  91.3404 268.8001 13.19725131113252
ONEWEB-0645             
1 55809U 23029P   25181.83035870  .00000042  00000+0  72128-4 0  9993
2 55809  87.9218  14.8409 0002006  98.7400 261.3960 13.19726366113259
ONEWEB-0646             
1 55810U 23029Q   25181.78454703  .00000137  00000+0  30964-3 0  9995
2 55810  87.9215  14.8431 0002108  87.7930 272.3444 13.19726895113236
ONEWEB-0648             
1 55811U 23029R   25181.52434345 -.00000226  00000+0 -64279-3 0  9995
2 55811  87.9039 359.6771 0002673 104.6942 255.4484 13.14504125113193
ONEWEB-0649             
1 55812U 23029S   25181.82324873 -.00000014  00000+0 -67754-4 0  9990
2 55812  87.9213  14.8244 0002256  97.7934 262.3455 13.19724282113270
ONEWEB-0650             
1 55813U 23029T   25181.59106502 -.00000075  00000+0 -21867-3 0  9993
2 55813  87.9216  14.8804 0002056  89.6921 270.4447 13.19724591112521
ONEWEB-0652             
1 55814U 23029U   25181.50531208  .00000008  00000+0 -11810-4 0  9993
2 55814  87.9040 359.6913 0001681  88.3411 271.7912 13.14502667113166
ONEWEB-0653             
1 55815U 23029V   25181.56556673  .00000324  00000+0  83839-3 0  9992
2 55815  87.9043 359.6689 0001643  96.0671 264.0646 13.14502500113897
ONEWEB-0654             
1 55816U 23029W   25181.86527913  .00000269  00000+0  68990-3 0  9990
2 55816  87.9039 359.6092 0001433  88.8568 271.2726 13.14502765113951
ONEWEB-0656             
1 55817U 23029X   25181.46531531  .00000090  00000+0  18851-3 0  9991
2 55817  87.9271 344.4759 0001359  89.5012 270.6277 13.20772200114721
ONEWEB-0657             
1 55818U 23029Y   25181.81378219  .00000040  00000+0  68308-4 0  9991
2 55818  87.9215  14.8409 0001898  65.4929 294.6402 13.19725020113246
ONEWEB-0658             
1 55819U 23029Z   25181.58158968 -.00000025  00000+0 -95267-4 0  9992
2 55819  87.9215  14.8204 0002335  90.5196 269.6204 13.19724570112545
ONEWEB-0660             
1 55820U 23029AA  25181.76695928 -.00000033  00000+0 -12361-3 0  9998
2 55820  87.9036 359.5996 0001956 101.8605 258.2744 13.14503390113942
ONEWEB-0661             
1 55821U 23029AB  25181.49737841  .00000126  00000+0  30577-3 0  9990
2 55821  87.9039 359.7245 0001878 103.0120 257.1220 13.14503092113186
ONEWEB-0662             
1 55822U 23029AC  25181.45616055 -.00000155  00000+0 -45128-3 0  9992
2 55822  87.9037 359.7390 0002028 100.8404 259.2954 13.14504106113223
ONEWEB-0663             
1 55823U 23029AD  25181.52145421  .00000055  00000+0  10422-3 0  9991
2 55823  87.9269 344.5196 0002212 102.8164 257.3216 13.20840096114721
ONEWEB-0664             
1 55824U 23029AE  25181.45267765  .00000019  00000+0  15677-4 0  9998
2 55824  87.9272 344.5554 0001596 104.9373 255.1937 13.20770600114711
ONEWEB-0665             
1 55825U 23029AF  25181.57032988  .00000217  00000+0  55174-3 0  9994
2 55825  87.9040 359.6844 0001995  97.4072 262.7284 13.14501807113216
ONEWEB-0666             
1 55826U 23029AG  25181.82515844 -.00000015  00000+0 -68661-4 0  9994
2 55826  87.9272 344.4700 0001707  70.1369 289.9948 13.20771292115455
ONEWEB-0667             
1 55827U 23029AH  25181.81883177 -.00000013  00000+0 -64196-4 0  9998
2 55827  87.9268 344.4026 0001904 101.1693 258.9655 13.20770208115442
ONEWEB-0669             
1 55828U 23029AJ  25181.81410078 -.00000047  00000+0 -14768-3 0  9991
2 55828  87.9272 344.4394 0001108  95.5825 264.5435 13.20772411115442
ONEWEB-0670             
1 55829U 23029AK  25181.54812932  .00000155  00000+0  38426-3 0  9992
2 55829  87.9041 359.7069 0001747 105.1377 254.9947 13.14502087113233
ONEWEB-0671             
1 55830U 23029AL  25181.57684330 -.00000024  00000+0 -92325-4 0  9992
2 55830  87.9215  14.8810 0001860  96.8722 263.2622 13.19723811112526
ONEWEB-0672             
1 55831U 23029AM  25181.50635035  .00000018  00000+0  11935-4 0  9993
2 55831  87.9272 344.4864 0001645  85.3562 274.7760 13.20771370114726
ONEWEB-0673             
1 55832U 23029AN  25181.55314624  .00000072  00000+0  14674-3 0  9999
2 55832  87.9213  14.8489 0002096  90.2315 269.9058 13.19728014112522
ONEWEB-0674             
1 55833U 23029AP  25181.51640845 -.00000105  00000+0 -31660-3 0  9996
2 55833  87.9036 359.6993 0001674 108.3124 251.8188 13.14501832113219
ONEWEB-0675             
1 55834U 23029AQ  25181.79639115 -.00000186  00000+0 -49649-3 0  9990
2 55834  87.9213  14.8489 0001960  79.5858 280.5495 13.19724711113283
ONEWEB-0720             
1 55835U 23029AR  25181.56106311  .00000025  00000+0  29430-4 0  9990
2 55835  87.9217  14.8923 0002210  96.3246 263.8138 13.19725250112464
ONEWEB-0537             
1 56046U 23043A   25181.78466042  .00000023  00000+0  27269-4 0  9991
2 56046  87.9064 298.7983 0001869  93.7717 266.3627 13.16594250113633
ONEWEB-0538             
1 56047U 23043B   25181.62632787  .00000135  00000+0  32012-3 0  9991
2 56047  87.9053 298.8483 0002171  95.9044 264.2335 13.16594682112712
ONEWEB-0546             
1 56048U 23043C   25181.61365495  .00000057  00000+0  11548-3 0  9994
2 56048  87.9061 298.8256 0001524  80.6298 279.5005 13.16594567112707
ONEWEB-0547             
1 56049U 23043D   25181.41254852  .00000037  00000+0  58660-4 0  9992
2 56049  87.9261 314.1409 0002122  97.4763 262.6612 13.21827502111755
ONEWEB-0548             
1 56050U 23043E   25181.56299287  .00000162  00000+0  38885-3 0  9996
2 56050  87.9050 298.8701 0001760 115.5241 244.6072 13.16595616112692
ONEWEB-0549             
1 56051U 23043F   25181.40388492  .00000077  00000+0  15434-3 0  9997
2 56051  87.9274 314.1546 0002249  96.4110 263.7280 13.21826529111750
ONEWEB-0550             
1 56052U 23043G   25181.61836208  .00000111  00000+0  23761-3 0  9995
2 56052  87.9270 314.1061 0001758 102.4439 257.6892 13.21827008111782
ONEWEB-0551             
1 56053U 23043H   25181.39009188  .00000092  00000+0  21113-3 0  9997
2 56053  87.9063 329.3720 0002089  98.0024 262.1343 13.15549017110146
ONEWEB-0552             
1 56054U 23043J   25181.61205522  .00000209  00000+0  47524-3 0  9997
2 56054  87.9269 314.1161 0002168 104.4714 255.6661 13.21825719111786
ONEWEB-0553             
1 56055U 23043K   25181.61999728  .00000178  00000+0  43121-3 0  9990
2 56055  87.9054 298.8476 0001619  95.1762 264.9554 13.16594507112715
ONEWEB-0554             
1 56056U 23043L   25181.60732745  .00000148  00000+0  35367-3 0  9994
2 56056  87.9051 298.8779 0001774 108.0910 252.0414 13.16593705112699
